GLOBALSTAR M057         
1 25943U 99058A   25088.79249722 -.00000095  00000+0 -23226-4 0  9993
2 25943  51.9972 213.5243 0002764 198.3051 161.7699 12.24815950157272
GLOBALSTAR M059         
1 25944U 99058B   25088.30016456 -.00000083  00000+0  40335-4 0  9993
2 25944  52.0019  63.2891 0000516 135.0918 318.7718 11.99975362564452
GLOBALSTAR M056         
1 25945U 99058C   25088.18515193 -.00000111  00000+0 -27270-3 0  9997
2 25945  51.9961  67.6125 0001143  29.0395 345.1933 12.04778519152989
GLOBALSTAR M031         
1 25946U 99058D   25088.37700802 -.00000087  00000+0  36081-4 0  9994
2 25946  51.9984 324.2052 0001856  40.5392 130.9291 12.16033931154830
GLOBALSTAR M039         
1 25961U 99062A   25088.50954713 -.00000056  00000+0  26505-3 0  9998
2 25961  51.9832 151.3994 0003070 165.6420 194.4534 12.62321839170183
GLOBALSTAR M034         
1 25962U 99062B   25088.14204958 -.00000092  00000+0 -16982-3 0  9997
2 25962  51.9860 219.4584 0013672 247.0327 283.1804 11.79446017128942
GLOBALSTAR M029         
1 25963U 99062C   25088.86788499 -.00000044  00000+0  52299-3 0  9991
2 25963  51.9813 309.8646 0002171 340.3443  30.6000 11.99893735159652
GLOBALSTAR M061         
1 25964U 99062D   25088.29920109 -.00000078  00000+0  40644-4 0  9994
2 25964  51.9812  42.0215 0005842 171.8467 336.0374 11.76772325111775
